{"type": "FeatureCollection", "features": [ {"type": "Feature", "properties": {"norad_id": 66767, "name": "TRANSPORTER-15DF", "group": "last-30-days", "lat": 48.65308241566634, "lon": -99.51868511880132, "alt_km": 505.4721764432952, "timestamp": "2025-12-26T09:30:52.341865+00:00", "meta": {"OBJECT_NAME": "TRANSPORTER-15DF", "OBJECT_ID": "2025-276DF", "EPOCH": "2025-12-26T04:11:45.483072", "MEAN_MOTION": 15.18358146, "ECCENTRICITY": 0.0002053, "INCLINATION": 97.4364, "RA_OF_ASC_NODE": 71.7275, "ARG_OF_PERICENTER": 86.2675, "MEAN_ANOMALY": 273.8794, "EPHEMERIS_TYPE": 0, "CLASSIFICATION_TYPE": "U", "NORAD_CAT_ID": 66767, "ELEMENT_SET_NO": 999, "REV_AT_EPOCH": 416, "BSTAR": 0.00021397, "MEAN_MOTION_DOT": 4.328e-05, "MEAN_MOTION_DDOT": 0}, "tle": {"line1": "1 66767U 25276DF  25360.17483198  .00004328  00000+0  21397-3 0  9992", "line2": "2 66767  97.4364  71.7275 0002053  86.2675 273.8794 15.18358146  4163"}}, "geometry": {"type": "Point", "coordinates": [-99.51868511880132, 48.65308241566634]}}, {"type": "Feature", "properties": {"norad_id": 66768, "name": "TRANSPORTER-15DG", "group": "last-30-days", "lat": 34.72657737973987, "lon": -102.85987968940493, "alt_km": 507.45810735374835, "timestamp": "2025-12-26T09:30:52.341874+00:00", "meta": {"OBJECT_NAME": "TRANSPORTER-15DG", "OBJECT_ID": "2025-276DG", "EPOCH": "2025-12-26T04:08:04.960032", "MEAN_MOTION": 15.1857468, "ECCENTRICITY": 0.0002108, "INCLINATION": 97.4349, "RA_OF_ASC_NODE": 71.7266, "ARG_OF_PERICENTER": 74.3048, "MEAN_ANOMALY": 285.8419, "EPHEMERIS_TYPE": 0, "CLASSIFICATION_TYPE": "U", "NORAD_CAT_ID": 66768, "ELEMENT_SET_NO": 999, "REV_AT_EPOCH": 416, "BSTAR": 0.00051206, "MEAN_MOTION_DOT": 0.00010525, "MEAN_MOTION_DDOT": 0}, "tle": {"line1": "1 66768U 25276DG  25360.17227963  .00010525  00000+0  51206-3 0  9997", "line2": "2 66768  97.4349  71.7266 0002108  74.3048 285.8419 15.18574680  4160"}}, "geometry": {"type": "Point", "coordinates": [-102.85987968940493, 34.72657737973987]}}, {"type": "Feature", "properties": {"norad_id": 66769, "name": "TRANSPORTER-15DH", "group": "last-30-days", "lat": 41.06170392755268, "lon": -101.49705169320814, "alt_km": 505.8458398969433, "timestamp": "2025-12-26T09:30:52.341884+00:00", "meta": {"OBJECT_NAME": "TRANSPORTER-15DH", "OBJECT_ID": "2025-276DH", "EPOCH": "2025-12-26T04:09:44.771904", "MEAN_MOTION": 15.1844282, "ECCENTRICITY": 0.000273, "INCLINATION": 97.4412, "RA_OF_ASC_NODE": 71.7455, "ARG_OF_PERICENTER": 101.5009, "MEAN_ANOMALY": 258.6532, "EPHEMERIS_TYPE": 0, "CLASSIFICATION_TYPE": "U", "NORAD_CAT_ID": 66769, "ELEMENT_SET_NO": 999, "REV_AT_EPOCH": 416, "BSTAR": 0.00028584, "MEAN_MOTION_DOT": 5.82e-05, "MEAN_MOTION_DDOT": 0}, "tle": {"line1": "1 66769U 25276DH  25360.17343486  .00005820  00000+0  28584-3 0  9992", "line2": "2 66769  97.4412  71.7455 0002730 101.5009 258.6532 15.18442820  4167"}}, "geometry": {"type": "Point", "coordinates": [-101.49705169320814, 41.06170392755268]}}, {"type": "Feature", "properties": {"norad_id": 66770, "name": "TRANSPORTER-15DJ", "group": "last-30-days", "lat": 39.581926131920014, "lon": -101.81760873696837, "alt_km": 505.58787260565714, "timestamp": "2025-12-26T09:30:52.341894+00:00", "meta": {"OBJECT_NAME": "TRANSPORTER-15DJ", "OBJECT_ID": "2025-276DJ", "EPOCH": "2025-12-26T04:09:20.612736", "MEAN_MOTION": 15.18407789, "ECCENTRICITY": 0.0003317, "INCLINATION": 97.4442, "RA_OF_ASC_NODE": 71.7569, "ARG_OF_PERICENTER": 116.3837, "MEAN_ANOMALY": 243.7738, "EPHEMERIS_TYPE": 0, "CLASSIFICATION_TYPE": "U", "NORAD_CAT_ID": 66770, "ELEMENT_SET_NO": 999, "REV_AT_EPOCH": 416, "BSTAR": 0.00021478, "MEAN_MOTION_DOT": 4.351e-05, "MEAN_MOTION_DDOT": 0}, "tle": {"line1": "1 66770U 25276DJ  25360.17315524  .00004351  00000+0  21478-3 0  9999", "line2": "2 66770  97.4442  71.7569 0003317 116.3837 243.7738 15.18407789  4161"}}, "geometry": {"type": "Point", "coordinates": [-101.81760873696837, 39.581926131920014]}}, {"type": "Feature", "properties": {"norad_id": 66771, "name": "TRANSPORTER-15DK", "group": "last-30-days", "lat": 36.17099676734262, "lon": -102.5392701559026, "alt_km": 506.1815824271098, "timestamp": "2025-12-26T09:30:52.341904+00:00", "meta": {"OBJECT_NAME": "TRANSPORTER-15DK", "OBJECT_ID": "2025-276DK", "EPOCH": "2025-12-26T04:08:27.318624", "MEAN_MOTION": 15.18506657, "ECCENTRICITY": 0.0003058, "INCLINATION": 97.4435, "RA_OF_ASC_NODE": 71.7553, "ARG_OF_PERICENTER": 108.9964, "MEAN_ANOMALY": 251.1602, "EPHEMERIS_TYPE": 0, "CLASSIFICATION_TYPE": "U", "NORAD_CAT_ID": 66771, "ELEMENT_SET_NO": 999, "REV_AT_EPOCH": 416, "BSTAR": 0.00032325, "MEAN_MOTION_DOT": 6.603e-05, "MEAN_MOTION_DDOT": 0}, "tle": {"line1": "1 66771U 25276DK  25360.17253841  .00006603  00000+0  32325-3 0  9998", "line2": "2 66771  97.4435  71.7553 0003058 108.9964 251.1602 15.18506657  4164"}}, "geometry": {"type": "Point", "coordinates": [-102.5392701559026, 36.17099676734262]}}, {"type": "Feature", "properties": {"norad_id": 66772, "name": "TRANSPORTER-15DL", "group": "last-30-days", "lat": 20.786361037620022, "lon": -105.17713485603049, "alt_km": 509.01739070698477, "timestamp": "2025-12-26T09:30:52.341918+00:00", "meta": {"OBJECT_NAME": "TRANSPORTER-15DL", "OBJECT_ID": "2025-276DL", "EPOCH": "2025-12-26T02:29:32.358336", "MEAN_MOTION": 15.1874148, "ECCENTRICITY": 0.0003123, "INCLINATION": 97.4426, "RA_OF_ASC_NODE": 71.6905, "ARG_OF_PERICENTER": 86.9982, "MEAN_ANOMALY": 273.161, "EPHEMERIS_TYPE": 0, "CLASSIFICATION_TYPE": "U", "NORAD_CAT_ID": 66772, "ELEMENT_SET_NO": 999, "REV_AT_EPOCH": 415, "BSTAR": 0.00067114, "MEAN_MOTION_DOT": 0.00013889, "MEAN_MOTION_DDOT": 0}, "tle": {"line1": "1 66772U 25276DL  25360.10384674  .00013889  00000+0  67114-3 0  9999", "line2": "2 66772  97.4426  71.6905 0003123  86.9982 273.1610 15.18741480  4150"}}, "geometry": {"type": "Point", "coordinates": [-105.17713485603049, 20.786361037620022]}}, {"type": "Feature", "properties": {"norad_id": 66773, "name": "TRANSPORTER-15DM", "group": "last-30-days", "lat": 29.289313433718924, "lon": -103.82095404459098, "alt_km": 507.6052974362201, "timestamp": "2025-12-26T09:30:52.341928+00:00", "meta": {"OBJECT_NAME": "TRANSPORTER-15DM", "OBJECT_ID": "2025-276DM", "EPOCH": "2025-12-26T04:06:38.202336", "MEAN_MOTION": 15.18562261, "ECCENTRICITY": 0.0003136, "INCLINATION": 97.4423, "RA_OF_ASC_NODE": 71.7525, "ARG_OF_PERICENTER": 95.9511, "MEAN_ANOMALY": 264.2081, "EPHEMERIS_TYPE": 0, "CLASSIFICATION_TYPE": "U", "NORAD_CAT_ID": 66773, "ELEMENT_SET_NO": 999, "REV_AT_EPOCH": 416, "BSTAR": 0.00031177, "MEAN_MOTION_DOT": 6.376e-05, "MEAN_MOTION_DDOT": 0}, "tle": {"line1": "1 66773U 25276DM  25360.17127549  .00006376  00000+0  31177-3 0  9996", "line2": "2 66773  97.4423  71.7525 0003136  95.9511 264.2081 15.18562261  4161"}}, "geometry": {"type": "Point", "coordinates": [-103.82095404459098, 29.289313433718924]}}, {"type": "Feature", "properties": {"norad_id": 66774, "name": "TRANSPORTER-15DN", "group": "last-30-days", "lat": 25.84901978703185, "lon": -104.39910457386696, "alt_km": 508.1760479877794, "timestamp": "2025-12-26T09:30:52.341938+00:00", "meta": {"OBJECT_NAME": "TRANSPORTER-15DN", "OBJECT_ID": "2025-276DN", "EPOCH": "2025-12-26T04:05:44.085696", "MEAN_MOTION": 15.18627351, "ECCENTRICITY": 0.0002997, "INCLINATION": 97.4409, "RA_OF_ASC_NODE": 71.7484, "ARG_OF_PERICENTER": 94.2104, "MEAN_ANOMALY": 265.9473, "EPHEMERIS_TYPE": 0, "CLASSIFICATION_TYPE": "U", "NORAD_CAT_ID": 66774, "ELEMENT_SET_NO": 999, "REV_AT_EPOCH": 416, "BSTAR": 0.00036465, "MEAN_MOTION_DOT": 7.484e-05, "MEAN_MOTION_DDOT": 0}, "tle": {"line1": "1 66774U 25276DN  25360.17064914  .00007484  00000+0  36465-3 0  9999", "line2": "2 66774  97.4409  71.7484 0002997  94.2104 265.9473 15.18627351  4169"}}, "geometry": {"type": "Point", "coordinates": [-104.39910457386696, 25.84901978703185]}}, {"type": "Feature", "properties": {"norad_id": 66775, "name": "PHI 1", "group": "last-30-days", "lat": 20.863556161003768, "lon": -105.19974603425354, "alt_km": 509.8525730926349, "timestamp": "2025-12-26T09:30:52.341947+00:00", "meta": {"OBJECT_NAME": "PHI 1", "OBJECT_ID": "2025-276DP", "EPOCH": "2025-12-26T04:04:25.314816", "MEAN_MOTION": 15.18697915, "ECCENTRICITY": 0.0002548, "INCLINATION": 97.4333, "RA_OF_ASC_NODE": 71.7251, "ARG_OF_PERICENTER": 67.1722, "MEAN_ANOMALY": 292.9781, "EPHEMERIS_TYPE": 0, "CLASSIFICATION_TYPE": "U", "NORAD_CAT_ID": 66775, "ELEMENT_SET_NO": 999, "REV_AT_EPOCH": 416, "BSTAR": 0.00056816, "MEAN_MOTION_DOT": 0.00011729, "MEAN_MOTION_DDOT": 0}, "tle": {"line1": "1 66775U 25276DP  25360.16973744  .00011729  00000+0  56816-3 0  9998", "line2": "2 66775  97.4333  71.7251 0002548  67.1722 292.9781 15.18697915  4160"}}, "geometry": {"type": "Point", "coordinates": [-105.19974603425354, 20.863556161003768]}}, {"type": "Feature", "properties": {"norad_id": 66776, "name": "TRANSPORTER-15DQ", "group": "last-30-days", "lat": 18.3053181346238, "lon": -105.56125763481022, "alt_km": 509.8279021772187, "timestamp": "2025-12-26T09:30:52.341957+00:00", "meta": {"OBJECT_NAME": "TRANSPORTER-15DQ", "OBJECT_ID": "2025-276DQ", "EPOCH": "2025-12-26T02:28:52.743072", "MEAN_MOTION": 15.18745844, "ECCENTRICITY": 0.0002829, "INCLINATION": 97.4373, "RA_OF_ASC_NODE": 71.6736, "ARG_OF_PERICENTER": 78.5036, "MEAN_ANOMALY": 281.6516, "EPHEMERIS_TYPE": 0, "CLASSIFICATION_TYPE": "U", "NORAD_CAT_ID": 66776, "ELEMENT_SET_NO": 999, "REV_AT_EPOCH": 415, "BSTAR": 0.00051876, "MEAN_MOTION_DOT": 0.00010717, "MEAN_MOTION_DDOT": 0}, "tle": {"line1": "1 66776U 25276DQ  25360.10338823  .00010717  00000+0  51876-3 0  9993", "line2": "2 66776  97.4373  71.6736 0002829  78.5036 281.6516 15.18745844  4153"}}, "geometry": {"type": "Point", "coordinates": [-105.56125763481022, 18.3053181346238]}}]}